NORAD_CAT_ID,OBJECT_NAME,OBJECT_TYPE,EPOCH,MEAN_MOTION,ECCENTRICITY,INCLINATION,RA_OF_ASC_NODE,ARG_OF_PERICENTER,MEAN_ANOMALY,BSTAR,MEAN_MOTION_DOT,MEAN_MOTION_DDOT,TLE_LINE0,TLE_LINE1,TLE_LINE2,SEMIMAJOR_AXIS,PERIOD,APOGEE,PERIGEE,DECAYED
56468.0,STARLINK-5998,PAYLOAD,2023-10-22 19:53:56,14.9831565,0.0002512,70.0008,174.9814,275.0758,85.0114,-4.5436e-05,-6.35e-06,0.0,0 STARLINK-5998,1 56468U 23064W   23295.82912698 -.00000635  00000-0 -45436-4 0  9992,2 56468  70.0008 174.9814 0002512 275.0758  85.0114 14.98315650 25462,6950.237,96.108,573.848,570.356,0.0
56468.0,STARLINK-5998,PAYLOAD,2023-10-22 23:06:11,14.98335112,0.0002743,70.0007,174.6446,278.3203,81.7645,0.00017423,1.987e-05,0.0,0 STARLINK-5998,1 56468U 23064W   23295.96263114  .00001987  00000-0  17423-3 0  9992,2 56468  70.0007 174.6446 0002743 278.3203  81.7645 14.98335112 25126,6950.177,96.107,573.949,570.136,0.0
56468.0,STARLINK-5998,PAYLOAD,2023-10-23 08:43:00,14.98323211,0.0002831,70.0,173.635,275.1443,84.9393,4.5052e-05,4.45e-06,0.0,0 STARLINK-5998,1 56468U 23064W   23296.36320237  .00000445  00000-0  45052-4 0  9995,2 56468  70.0000 173.6350 0002831 275.1443  84.9393 14.98323211 25549,6950.214,96.107,574.046,570.111,0.0
56468.0,STARLINK-5998,PAYLOAD,2023-10-23 19:55:56,14.98334894,0.0002867,69.9995,172.4566,270.9601,89.123,-9.4154e-05,-1.216e-05,0.0,0 STARLINK-5998,1 56468U 23064W   23296.83051809 -.00001216  00000-0 -94154-4 0  9999,2 56468  69.9995 172.4566 0002867 270.9601  89.1230 14.98334894 25617,6950.178,96.107,574.035,570.05,0.0
56468.0,STARLINK-5998,PAYLOAD,2023-10-23 21:32:04,14.98336841,0.0002819,69.9997,172.2884,271.4165,88.6671,-7.799e-05,-1.024e-05,0.0,0 STARLINK-5998,1 56468U 23064W   23296.89727621 -.00001024  00000-0 -77990-4 0  9993,2 56468  69.9997 172.2884 0002819 271.4165  88.6671 14.98336841 25266,6950.172,96.107,573.996,570.077,0.0
56468.0,STARLINK-5998,PAYLOAD,2023-10-24 08:45:00,14.98338941,0.0002866,69.9996,171.1105,271.6052,88.4779,-3.0885e-05,-4.62e-06,0.0,0 STARLINK-5998,1 56468U 23064W   23297.36459095 -.00000462  00000-0 -30885-4 0  9990,2 56468  69.9996 171.1105 0002866 271.6052  88.4779 14.98338941 25336,6950.165,96.106,574.022,570.038,0.0
56468.0,STARLINK-5998,PAYLOAD,2023-10-25 21:36:06,14.98334136,0.0002442,70.0007,167.2387,261.4747,98.6135,-3.7165e-05,-5.36e-06,0.0,0 STARLINK-5998,1 56468U 23064W   23298.90007147 -.00000536  00000-0 -37165-4 0  9998,2 56468  70.0007 167.2387 0002442 261.4747  98.6135 14.98334136 25924,6950.18,96.107,573.742,570.348,0.0
56468.0,STARLINK-5998,PAYLOAD,2023-10-26 00:48:22,14.98318979,0.0002594,69.9999,166.9012,274.3313,85.7549,0.00018257,2.085e-05,0.0,0 STARLINK-5998,1 56468U 23064W   23299.03359497  .00002085  00000-0  18257-3 0  9990,2 56468  69.9999 166.9012 0002594 274.3313  85.7549 14.98318979 25587,6950.227,96.108,573.895,570.289,0.0
56468.0,STARLINK-5998,PAYLOAD,2023-10-26 21:38:06,14.98339455,0.0002385,70.0002,164.7139,260.0566,100.0324,2.9549e-05,2.6e-06,0.0,0 STARLINK-5998,1 56468U 23064W   23299.90146196  .00000260  00000-0  29549-4 0  9996,2 56468  70.0002 164.7139 0002385 260.0566 100.0324 14.98339455 25710,6950.164,96.106,573.686,570.371,0.0
56468.0,STARLINK-5998,PAYLOAD,2023-10-27 00:50:21,14.98345997,0.0002758,69.9993,164.3767,268.2468,91.8376,0.00010674,1.181e-05,0.0,0 STARLINK-5998,1 56468U 23064W   23300.03497464  .00001181  00000-0  10674-3 0  9991,2 56468  69.9993 164.3767 0002758 268.2468  91.8376 14.98345997 26098,6950.143,96.106,573.925,570.092,0.0
56468.0,STARLINK-5998,PAYLOAD,2023-10-27 08:51:02,14.98335821,0.0002304,70.0011,163.5377,266.7196,93.37,1.9818e-05,1.44e-06,0.0,0 STARLINK-5998,1 56468U 23064W   23300.36878226  .00000144  00000-0  19818-4 0  9994,2 56468  70.0011 163.5377 0002304 266.7196  93.3700 14.98335821 26147,6950.175,96.107,573.641,570.439,0.0
56468.0,STARLINK-5998,PAYLOAD,2023-10-27 21:40:07,14.98324475,0.0002386,70.0007,162.1896,264.8688,95.2199,-1.6278e-05,-2.87e-06,0.0,0 STARLINK-5998,1 56468U 23064W   23300.90286986 -.00000287  00000-0 -16278-4 0  9997,2 56468  70.0007 162.1896 0002386 264.8688  95.2199 14.98324475 25862,6950.21,96.107,573.733,570.417,0.0
56468.0,STARLINK-5998,PAYLOAD,2023-10-28 00:52:24,14.98321718,0.0002318,70.0006,161.8528,264.548,95.5414,-4.756e-05,-6.6e-06,0.0,0 STARLINK-5998,1 56468U 23064W   23301.03639362 -.00000660  00000-0 -47560-4 0  9995,2 56468  70.0006 161.8528 0002318 264.5480  95.5414 14.98321718 26244,6950.219,96.108,573.695,570.472,0.0
56468.0,STARLINK-5998,PAYLOAD,2023-10-28 13:41:28,14.98330298,0.0002597,69.9996,160.5069,264.7191,95.3671,-0.00013274,-1.676e-05,0.0,0 STARLINK-5998,1 56468U 23064W   23301.57047139 -.00001676  00000-0 -13274-3 0  9991,2 56468  69.9996 160.5069 0002597 264.7191  95.3671 14.98330298 25969,6950.192,96.107,573.862,570.252,0.0
56468.0,STARLINK-5998,PAYLOAD,2023-10-28 21:42:08,14.98332974,0.0002576,70.0002,159.6659,271.8921,88.1943,-6.8272e-05,-9.07e-06,0.0,0 STARLINK-5998,1 56468U 23064W   23301.90426797 -.00000907  00000-0 -68272-4 0  9994,2 56468  70.0002 159.6659 0002576 271.8921  88.1943 14.98332974 26372,6950.184,96.107,573.839,570.258,0.0
56468.0,STARLINK-5998,PAYLOAD,2023-10-29 07:18:56,14.9833416,0.0002542,69.9999,158.6556,273.4114,86.6754,-5.7914e-05,-7.84e-06,0.0,0 STARLINK-5998,1 56468U 23064W   23302.30482611 -.00000784  00000-0 -57914-4 0  9990,2 56468  69.9999 158.6556 0002542 273.4114  86.6754 14.98334160 26073,6950.18,96.107,573.812,570.278,0.0
56468.0,STARLINK-5998,PAYLOAD,2023-10-29 21:44:09,14.98328629,0.0002606,69.9994,157.1401,267.7804,92.3056,8.1705e-05,8.82e-06,0.0,0 STARLINK-5998,1 56468U 23064W   23302.90566550  .00000882  00000-0  81705-4 0  9993,2 56468  69.9994 157.1401 0002606 267.7804  92.3056 14.98328629 26166,6950.197,96.107,573.873,570.251,0.0
56468.0,STARLINK-5998,PAYLOAD,2023-10-29 23:20:17,14.98330925,0.0002612,69.9993,156.9722,267.4531,92.6329,0.00010715,1.186e-05,0.0,0 STARLINK-5998,1 56468U 23064W   23302.97242313  .00001186  00000-0  10715-3 0  9998,2 56468  69.9993 156.9722 0002612 267.4531  92.6329 14.98330925 26538,6950.19,96.107,573.87,570.24,0.0
56468.0,STARLINK-5998,PAYLOAD,2023-10-30 20:09:52,14.98468623,0.0002944,70.0006,154.7842,257.5963,102.4866,0.0015949,0.00019057,0.0,0 STARLINK-5998,1 56468U 23064W   23303.84018611  .00019057  00000-0  15949-2 0  9996,2 56468  70.0006 154.7842 0002944 257.5963 102.4866 14.98468623 26669,6949.764,96.098,573.675,569.583,0.0
56468.0,STARLINK-5998,PAYLOAD,2023-10-30 21:46:10,14.98328957,0.0002854,70.0003,154.6162,256.5845,103.4996,2.2865e-05,1.8e-06,0.0,0 STARLINK-5998,1 56468U 23064W   23303.90706726  .00000180  00000-0  22865-4 0  9998,2 56468  70.0003 154.6162 0002854 256.5845 103.4996 14.98328957 26310,6950.196,96.107,574.045,570.078,0.0
56468.0,STARLINK-5998,PAYLOAD,2023-10-30 23:22:18,14.9832641,0.0002571,69.9997,154.4475,265.5065,94.58,-1.1546e-05,-2.31e-06,0.0,0 STARLINK-5998,1 56468U 23064W   23303.97383030 -.00000231  00000-0 -11546-4 0  9997,2 56468  69.9997 154.4475 0002571 265.5065  94.5800 14.98326410 26680,6950.204,96.107,573.856,570.282,0.0
56468.0,STARLINK-5998,PAYLOAD,2023-10-31 07:22:57,14.98404315,0.0002763,70.0013,153.6049,270.4074,89.6768,-0.0013378,-0.00016049,0.0,0 STARLINK-5998,1 56468U 23064W   23304.30761313 -.00016049  00000-0 -13378-2 0  9996,2 56468  70.0013 153.6049 0002763 270.4074  89.6768 14.98404315 26733,6949.963,96.102,573.748,569.908,0.0
56468.0,STARLINK-5998,PAYLOAD,2023-10-31 20:12:03,14.98331124,0.000247,69.9996,152.258,261.7038,98.3841,-2.5125e-05,-3.93e-06,0.0,0 STARLINK-5998,1 56468U 23064W   23304.84170810 -.00000393  00000-0 -25125-4 0  9991,2 56468  69.9996 152.2580 0002470 261.7038  98.3841 14.98331124 26818,6950.189,96.107,573.771,570.338,0.0
56468.0,STARLINK-5998,PAYLOAD,2023-10-31 21:48:11,14.98329343,0.0002521,69.9999,152.0897,267.1069,92.9802,-9.2191e-07,-1.04e-06,0.0,0 STARLINK-5998,1 56468U 23064W   23304.90846892 -.00000104  00000-0 -92191-6 0  9997,2 56468  69.9999 152.0897 0002521 267.1069  92.9802 14.98329343 26469,6950.195,96.107,573.812,570.308,0.0
56468.0,STARLINK-5998,PAYLOAD,2023-11-01 07:24:59,14.98333208,0.0002683,69.9996,151.0801,270.4538,89.6314,-7.6682e-05,-1.008e-05,0.0,0 STARLINK-5998,1 56468U 23064W   23305.30902681 -.00001008  00000-0 -76682-4 0  9990,2 56468  69.9996 151.0801 0002683 270.4538  89.6314 14.98333208 26520,6950.183,96.107,573.913,570.183,0.0
56468.0,STARLINK-5998,PAYLOAD,2023-11-01 20:14:04,14.9832851,0.000271,69.9995,149.7345,269.5588,90.5261,6.462e-05,6.78e-06,0.0,0 STARLINK-5998,1 56468U 23064W   23305.84310643  .00000678  00000-0  64620-4 0  9999,2 56468  69.9995 149.7345 0002710 269.5588  90.5261 14.98328510 26961,6950.197,96.107,573.946,570.179,0.0
56468.0,STARLINK-5998,PAYLOAD,2023-11-01 21:50:12,14.98327841,0.0002711,69.9995,149.5662,268.8972,91.1876,6.8652e-05,7.26e-06,0.0,0 STARLINK-5998,1 56468U 23064W   23305.90986672  .00000726  00000-0  68652-4 0  9990,2 56468  69.9995 149.5662 0002711 268.8972  91.1876 14.98327841 26618,6950.2,96.107,573.949,570.18,0.0
56468.0,STARLINK-5998,PAYLOAD,2023-11-02 13:51:33,14.9832916,0.0002782,69.9995,147.8833,271.1919,88.8921,1.1707e-05,4.7e-07,0.0,0 STARLINK-5998,1 56468U 23064W   23306.57746749  .00000047  00000-0  11707-4 0  9998,2 56468  69.9995 147.8833 0002782 271.1919  88.8921 14.98329160 26716,6950.195,96.107,573.994,570.127,0.0
56468.0,STARLINK-5998,PAYLOAD,2023-11-02 20:16:05,14.98331319,0.0002808,69.9994,147.2097,270.5411,89.5426,6.064e-06,-2.1e-07,0.0,0 STARLINK-5998,1 56468U 23064W   23306.84450614 -.00000021  00000-0  60640-5 0  9995,2 56468  69.9994 147.2097 0002808 270.5411  89.5426 14.98331319 27112,6950.189,96.107,574.005,570.102,0.0
56468.0,STARLINK-5998,PAYLOAD,2023-11-02 21:52:13,14.98331704,0.0002804,69.9994,147.0414,270.5333,89.5505,1.0359e-05,3.1e-07,0.0,0 STARLINK-5998,1 56468U 23064W   23306.91126570  .00000031  00000-0  10359-4 0  9995,2 56468  69.9994 147.0414 0002804 270.5333  89.5505 14.98331704 26768,6950.188,96.107,574.001,570.104,0.0
